{
"type": "FeatureCollection",
"name": "west_Jerusalem_2",
"crs": { "type": "name", "properties": { "name": "urn:ogc:def:crs:OGC:1.3:CRS84" } },
"features": [
{ "type": "Feature", "properties": { "Shape_Leng": 62278.013719900002, "Shape_Area": 49473788.529100001 }, "geometry": { "type": "MultiPolygon", "coordinates": [ [ [ [ 35.182579935698776, 31.808526707247207 ], [ 35.182950400514038, 31.80855580932117 ], [ 35.182895488106411, 31.808540378652882 ], [ 35.183034148750245, 31.808549871275471 ], [ 35.183263525864426, 31.808561723609692 ], [ 35.18365458413183, 31.808592630723634 ], [ 35.183893464631808, 31.808611247245867 ], [ 35.184175953151822, 31.808666935741616 ], [ 35.184436696080674, 31.808679422224092 ], [ 35.18464674865622, 31.808685677647599 ], [ 35.184856694381089, 31.80869797501423 ], [ 35.185081211434678, 31.808722809776096 ], [ 35.185392640121179, 31.808766054610544 ], [ 35.185790980693433, 31.808827979430422 ], [ 35.186189213785113, 31.808902167967176 ], [ 35.186645316029477, 31.809001163846027 ], [ 35.187029291124738, 31.809087702927346 ], [ 35.187456457349278, 31.809192914620976 ], [ 35.187724473653169, 31.809291881471573 ], [ 35.18788372247036, 31.809341322868125 ], [ 35.188108242999725, 31.809359839432993 ], [ 35.188535533158685, 31.809372248527186 ], [ 35.188897555242484, 31.809397093606588 ], [ 35.189100323776458, 31.809397118121357 ], [ 35.189511561643307, 31.80941006311232 ], [ 35.189779486853965, 31.809434714283928 ], [ 35.190221245957332, 31.809447209563007 ], [ 35.190511034298325, 31.809459596647994 ], [ 35.190800611512714, 31.80947189286702 ], [ 35.191184390876792, 31.809490511090353 ], [ 35.191604601150395, 31.809540064817021 ], [ 35.19200284689677, 31.809577169675517 ], [ 35.19253141665699, 31.80959579784356 ], [ 35.192908124156126, 31.809589609703703 ], [ 35.193335415290285, 31.809608135174894 ], [ 35.194573776861489, 31.809682457836459 ], [ 35.19508798369305, 31.809713339258106 ], [ 35.195406604160716, 31.809732030157424 ], [ 35.195841077872956, 31.809750457540407 ], [ 35.196101827073598, 31.809744432477316 ], [ 35.196362577324443, 31.809725871351276 ], [ 35.196700948456296, 31.80972670388973 ], [ 35.196990741981672, 31.809695878249691 ], [ 35.197150001733803, 31.80967730957164 ], [ 35.197403465033531, 31.809652613409572 ], [ 35.198127744246889, 31.809454878320139 ], [ 35.198526106831423, 31.809349743136227 ], [ 35.198967768327627, 31.809238566249366 ], [ 35.199235805969067, 31.809176711385231 ], [ 35.199590548301344, 31.809102504091033 ], [ 35.199988907414038, 31.809003767363773 ], [ 35.20052487401545, 31.808880052762067 ], [ 35.200858070396926, 31.808799708786246 ], [ 35.201205522413332, 31.808744074621579 ], [ 35.201625738711876, 31.808657598290893 ], [ 35.201752257550062, 31.808632078993622 ], [ 35.201994945406298, 31.808583294419254 ], [ 35.202197819089086, 31.808527744926955 ], [ 35.202378831765472, 31.808472104583871 ], [ 35.202755323924414, 31.808404111477035 ], [ 35.203030643455179, 31.808348381197451 ], [ 35.203267944314312, 31.808267128010822 ], [ 35.203521402542357, 31.808199041309653 ], [ 35.203796615554332, 31.808118779408748 ], [ 35.203955871384274, 31.808069269207014 ], [ 35.204252838653495, 31.808007584229514 ], [ 35.2044918273386, 31.807976561072206 ], [ 35.204650977017195, 31.807951940697361 ], [ 35.204817730252913, 31.807914694381861 ], [ 35.204976879856723, 31.807908651438925 ], [ 35.205244909083937, 31.807784917898186 ], [ 35.20554916021328, 31.807624298336005 ], [ 35.205809689326045, 31.807469720845631 ], [ 35.206019738436368, 31.807352208973899 ], [ 35.206381963097272, 31.807123497962404 ], [ 35.206707646685977, 31.806907141750028 ], [ 35.206917800677807, 31.806851494404171 ], [ 35.207098806174464, 31.806758781832748 ], [ 35.207533364267022, 31.806492820092185 ], [ 35.207844788350755, 31.806332194833356 ], [ 35.208047544837761, 31.806196192131644 ], [ 35.208344391992355, 31.805998410371128 ], [ 35.20858326238794, 31.80583138248328 ], [ 35.208742720348582, 31.805726403282165 ], [ 35.208873032040565, 31.805639732204718 ], [ 35.209003448183445, 31.805534753693593 ], [ 35.209227852960794, 31.805454301481401 ], [ 35.209428602186563, 31.805376465139339 ], [ 35.20960252753494, 31.805296194620659 ], [ 35.209841399305176, 31.805221873223935 ], [ 35.210007933986269, 31.805178667977231 ], [ 35.210203509932363, 31.805141593682556 ], [ 35.210391695052941, 31.805129139593344 ], [ 35.210609026762825, 31.805116773988765 ], [ 35.210956672545507, 31.805092046185823 ], [ 35.211260810791316, 31.805085807453612 ], [ 35.211564949958117, 31.805092013349068 ], [ 35.212013872878899, 31.805110474914695 ], [ 35.212194878209495, 31.805116686621155 ], [ 35.212368808640001, 31.805129031007358 ], [ 35.212593217178387, 31.805135239419204 ], [ 35.213042250739043, 31.80520329840013 ], [ 35.213324744579602, 31.805240254210833 ], [ 35.213563622395782, 31.805258724881948 ], [ 35.213846112845609, 31.80525870420869 ], [ 35.214077807816203, 31.805258686784828 ], [ 35.214244345176454, 31.805258674000441 ], [ 35.214454390671278, 31.805252434888459 ], [ 35.214744060114299, 31.805234014174932 ], [ 35.214946923040941, 31.805215329480315 ], [ 35.215258238152849, 31.80517210527519 ], [ 35.215468174841234, 31.805141244342607 ], [ 35.215678216236981, 31.805104160377272 ], [ 35.215928174134341, 31.805054807466306 ], [ 35.21617433080263, 31.805011496725886 ], [ 35.216377192185924, 31.804986857625604 ], [ 35.216536332746365, 31.804955819336783 ], [ 35.21675365993822, 31.804918732900642 ], [ 35.216920190844206, 31.80487542842641 ], [ 35.217086829726817, 31.804850611387916 ], [ 35.217253247903628, 31.804757885804381 ], [ 35.217383654175535, 31.80465894100562 ], [ 35.217586393031091, 31.804522923078746 ], [ 35.217818068291038, 31.804399347132527 ], [ 35.217991983640587, 31.804312842463705 ], [ 35.218223552206716, 31.804189085419551 ], [ 35.218426399098739, 31.804084089340304 ], [ 35.218600103949385, 31.804009758664904 ], [ 35.218773807599597, 31.803929475624791 ], [ 35.218976656192602, 31.803842876148234 ], [ 35.219244553397026, 31.803744003783734 ], [ 35.219404004683859, 31.803694474200366 ], [ 35.219592172489428, 31.803601742975943 ], [ 35.219765977028118, 31.803502790529226 ], [ 35.219961428520406, 31.803397612518857 ], [ 35.220258245578783, 31.803224603429744 ], [ 35.220453797237873, 31.803094624114209 ], [ 35.220736252815932, 31.802933970888873 ], [ 35.220895483032947, 31.802841241440124 ], [ 35.221067167618592, 31.802713789412575 ], [ 35.221219311780416, 31.802565417103242 ], [ 35.221335138980933, 31.802472692830129 ], [ 35.221450965950112, 31.802379968450325 ], [ 35.221581261095189, 31.802293374506835 ], [ 35.221907108174044, 31.802101689580958 ], [ 35.222066440209588, 31.802002735961921 ], [ 35.222298099632873, 31.801860573961392 ], [ 35.222457430837878, 31.801761619849572 ], [ 35.222623942490486, 31.801662664508559 ], [ 35.222761523146382, 31.801582290984509 ], [ 35.222891814727532, 31.801489563193066 ], [ 35.223022209168533, 31.801384480074368 ], [ 35.223174251168288, 31.801279303444247 ], [ 35.223405902029242, 31.801112429057643 ], [ 35.223499966718286, 31.80099490550316 ], [ 35.223681022868092, 31.800772394797775 ], [ 35.223782358989226, 31.800586961533615 ], [ 35.223832901867276, 31.800401445767463 ], [ 35.223876458200813, 31.800135577284269 ], [ 35.22390525271706, 31.799974955531681 ], [ 35.223899199017978, 31.799810190658985 ], [ 35.223906340689453, 31.799624771668711 ], [ 35.223899126274929, 31.799463975052269 ], [ 35.223891803712426, 31.799290913450118 ], [ 35.22388446949526, 31.7990622084337 ], [ 35.223877152178019, 31.798913857183713 ], [ 35.223884408491124, 31.79877163619841 ], [ 35.223906113306462, 31.7985429267145 ], [ 35.223920634888259, 31.798301863137358 ], [ 35.223963974900485, 31.798017506885703 ], [ 35.223986223536599, 31.797865633899065 ], [ 35.224029574913537, 31.797636921027784 ], [ 35.224087388628796, 31.797389537843088 ], [ 35.224188610713973, 31.797185616489021 ], [ 35.224261022234607, 31.797061963165334 ], [ 35.2244855724133, 31.796833221699128 ], [ 35.224637495680732, 31.796709555579167 ], [ 35.224760701040388, 31.796604471746072 ], [ 35.224886519834548, 31.796380975979449 ], [ 35.223746831904151, 31.796314057578503 ], [ 35.223906090985714, 31.795924529206079 ], [ 35.224050887763042, 31.795559803406775 ], [ 35.224202747554862, 31.795145655564731 ], [ 35.224398203472461, 31.794675857221755 ], [ 35.224499530168082, 31.794484200524973 ], [ 35.224666015789744, 31.794335731458972 ], [ 35.224796280364494, 31.794175002974999 ], [ 35.224897617979543, 31.794038989400125 ], [ 35.22502079203803, 31.793810263172233 ], [ 35.225187259038705, 31.793587752440843 ], [ 35.225295772791675, 31.793439291987614 ], [ 35.225368179919869, 31.793315637963175 ], [ 35.225513932975815, 31.793020261611623 ], [ 35.225593620945091, 31.792878028359862 ], [ 35.225702124735292, 31.79269259214664 ], [ 35.225825100958424, 31.792537996294772 ], [ 35.225933615352915, 31.792401980652738 ], [ 35.226049623376355, 31.792253608445598 ], [ 35.226201532710178, 31.792111362489976 ], [ 35.226360831343307, 31.791962982569245 ], [ 35.226541769239809, 31.791789888290694 ], [ 35.226664851422221, 31.791647646784483 ], [ 35.226826761169562, 31.791387257387413 ], [ 35.226896389566981, 31.791140592075845 ], [ 35.226932457694382, 31.790528687753039 ], [ 35.226939669688839, 31.790225848828626 ], [ 35.22696856290036, 31.790071268441398 ], [ 35.226982993676657, 31.789929045810663 ], [ 35.227004693309105, 31.789718823192104 ], [ 35.227019001846223, 31.789508692060629 ], [ 35.22704080688532, 31.789298469403292 ], [ 35.227048146940653, 31.789089602069478 ], [ 35.227055394624863, 31.788935025485074 ], [ 35.227055359945432, 31.788792895578915 ], [ 35.227084353588531, 31.788619827401508 ], [ 35.227113102665143, 31.788310671658742 ], [ 35.227112909111938, 31.787519397558309 ], [ 35.227032743253829, 31.787405329111472 ], [ 35.226883993169338, 31.787040380917805 ], [ 35.226881093777273, 31.786839451518397 ], [ 35.226939022790127, 31.786690998434846 ], [ 35.227004135780447, 31.786561212131264 ], [ 35.227076509621604, 31.786332492661618 ], [ 35.227090936636351, 31.786177914728949 ], [ 35.227127096881318, 31.785955424363575 ], [ 35.227148813447492, 31.785819423016918 ], [ 35.227220956199261, 31.785513415790824 ], [ 35.227242660346349, 31.785327903402663 ], [ 35.227271530234738, 31.785086836369267 ], [ 35.227307778408921, 31.784796256970044 ], [ 35.227336521000652, 31.784468613269251 ], [ 35.227358233859697, 31.784320256645366 ], [ 35.227387113829337, 31.784122387692449 ], [ 35.22735814980873, 31.783980262900254 ], [ 35.227177137659787, 31.783782431669753 ], [ 35.227039546486687, 31.7836958795511 ], [ 35.226807777365899, 31.78360321138322 ], [ 35.226612216475679, 31.783485916238025 ], [ 35.226554298627647, 31.783232419016276 ], [ 35.226532604862328, 31.78302220380241 ], [ 35.226518103798924, 31.782867721064985 ], [ 35.22649621080307, 31.782706926722664 ], [ 35.226510739422025, 31.782533951204822 ], [ 35.226532653107903, 31.782338608753044 ], [ 35.226547070088586, 31.782140742442735 ], [ 35.226547030303045, 31.781973901954984 ], [ 35.226604943539058, 31.781769895535462 ], [ 35.226785834318306, 31.781485513518202 ], [ 35.226908790898996, 31.781318470954698 ], [ 35.227010109893811, 31.781176232731053 ], [ 35.227183938322696, 31.780947494946169 ], [ 35.22735755782022, 31.780731202355348 ], [ 35.22748060567055, 31.780514738332339 ], [ 35.227371926938225, 31.780347917454908 ], [ 35.227256190224551, 31.780242783656554 ], [ 35.226980918927651, 31.780094479978537 ], [ 35.226560885840016, 31.779865846970232 ], [ 35.226343789990025, 31.779723754466023 ], [ 35.225980355827652, 31.779528207319164 ], [ 35.225719666489724, 31.779417054268983 ], [ 35.22551693949395, 31.779311933414366 ], [ 35.22542284750935, 31.779200661820994 ], [ 35.225422812522595, 31.779046086291274 ], [ 35.225458883839991, 31.778891594973445 ], [ 35.225502390392435, 31.778471329865408 ], [ 35.225422644634683, 31.778304322101331 ], [ 35.225408125168286, 31.778057039678668 ], [ 35.225408087433507, 31.777890199082588 ], [ 35.225400766555687, 31.777729402019489 ], [ 35.225437042927958, 31.777550110010498 ], [ 35.225444175634735, 31.777346112359268 ], [ 35.225436965926626, 31.777210115899226 ], [ 35.225436929550568, 31.777049497985171 ], [ 35.225465693170406, 31.776795985654996 ], [ 35.225509159156836, 31.776666203495672 ], [ 35.225581437480969, 31.776499170482115 ], [ 35.225697312159056, 31.776313732573549 ], [ 35.225799364101455, 31.776160853351588 ], [ 35.22587904290414, 31.776043330003002 ], [ 35.225965992976832, 31.775870251941356 ], [ 35.226052636104939, 31.775740462255701 ], [ 35.226161333001478, 31.775567290167569 ], [ 35.226255358197349, 31.775406565913968 ], [ 35.226385592032251, 31.775239612632337 ], [ 35.226552107446565, 31.774930522682553 ], [ 35.226631565723871, 31.774782155898667 ], [ 35.226696774885689, 31.774646146787777 ], [ 35.226812639046877, 31.77443590716981 ], [ 35.226906661994811, 31.774275272591982 ], [ 35.227022422659509, 31.77407738801999 ], [ 35.22713829144579, 31.773891948732491 ], [ 35.227239499447691, 31.773761975229348 ], [ 35.227355264892878, 31.773588890985497 ], [ 35.22739882925277, 31.773446752867496 ], [ 35.227434898158954, 31.773304525903768 ], [ 35.227485538351175, 31.773174741701567 ], [ 35.227579653583874, 31.772970637804551 ], [ 35.227652037113394, 31.772828494335734 ], [ 35.227767819273701, 31.772729541087937 ], [ 35.228013889524405, 31.772704875401011 ], [ 35.228274537350636, 31.772717091836736 ], [ 35.228455477451909, 31.772710925251644 ], [ 35.228686979193718, 31.772686080647951 ], [ 35.229049067051804, 31.772661390775589 ], [ 35.229302420842821, 31.772636540820518 ], [ 35.229526750337016, 31.772636496743704 ], [ 35.229700595339956, 31.772549975681557 ], [ 35.229797544130655, 31.772304745574303 ], [ 35.229855336949299, 31.772094514685296 ], [ 35.229920394906735, 31.771816373608278 ], [ 35.229992763724489, 31.771637072898343 ], [ 35.230021608598051, 31.771346493604312 ], [ 35.23002874271576, 31.771185783918309 ], [ 35.229999858698832, 31.770950859872709 ], [ 35.229949022491418, 31.770734518166361 ], [ 35.229883804310063, 31.770425379755057 ], [ 35.22978964518375, 31.770054561063382 ], [ 35.22970985351224, 31.769720714957391 ], [ 35.229564894818708, 31.769257106572521 ], [ 35.229514273359484, 31.769046987304236 ], [ 35.229368810958, 31.768665536589303 ], [ 35.229260223441329, 31.768405917405044 ], [ 35.229166116609775, 31.768214294223931 ], [ 35.229093666706312, 31.768084442979479 ], [ 35.228999445170587, 31.767855753960202 ], [ 35.228919784991291, 31.767602261389236 ], [ 35.228825668321583, 31.767367439674008 ], [ 35.228753192021166, 31.767132523558807 ], [ 35.228695299583315, 31.766959471017408 ], [ 35.228630003617248, 31.766730685976757 ], [ 35.228543063422912, 31.766483507408996 ], [ 35.228434479154593, 31.766217664714794 ], [ 35.228354719570433, 31.765976617173571 ], [ 35.228275179441766, 31.765766412556406 ], [ 35.228224335825317, 31.765494426280881 ], [ 35.228201997086799, 31.765237315055579 ], [ 35.228194678736145, 31.765101318513896 ], [ 35.22814396496365, 31.764922041608003 ], [ 35.228086068717744, 31.764724188048124 ], [ 35.228035243541946, 31.764520290795232 ], [ 35.228013555541111, 31.76432865318019 ], [ 35.227984483319361, 31.764155504706093 ], [ 35.227955611371563, 31.763939157900367 ], [ 35.227933706300711, 31.763722809793205 ], [ 35.22791189906328, 31.763475528437116 ], [ 35.227933590479985, 31.763265394974141 ], [ 35.228056595029713, 31.762974798303578 ], [ 35.228121691433955, 31.762851143486905 ], [ 35.228237433731287, 31.762647124929344 ], [ 35.228353168060544, 31.762414157092163 ], [ 35.228418241306343, 31.762203925159369 ], [ 35.228468872478636, 31.762067917624563 ], [ 35.228519609057642, 31.761931910046812 ], [ 35.228562938995559, 31.761727904860582 ], [ 35.228577362960131, 31.761585681418726 ], [ 35.228570140267259, 31.76141261903749 ], [ 35.228570051858703, 31.761072624070952 ], [ 35.228562705990356, 31.760831562698016 ], [ 35.228533604973485, 31.760547216950066 ], [ 35.228511912058607, 31.760337001323325 ], [ 35.228482513106485, 31.760123720875242 ], [ 35.228475172329837, 31.759901147255068 ], [ 35.228460674867172, 31.75975901943481 ], [ 35.228431593664688, 31.759548805164069 ], [ 35.228373573884618, 31.75927059731379 ], [ 35.228330235652315, 31.759029542630127 ], [ 35.228293873544871, 31.758825552393986 ], [ 35.228264912871659, 31.758671071980018 ], [ 35.228221487052487, 31.75849792609495 ], [ 35.228163350397722, 31.758170387263689 ], [ 35.228033134690598, 31.757471752994334 ], [ 35.22802577322323, 31.757162692416408 ], [ 35.228018455773253, 31.757026695691593 ], [ 35.227996676582464, 31.756884569104383 ], [ 35.227888100429574, 31.756600237733892 ], [ 35.227786626214701, 31.756433325062112 ], [ 35.22762744681426, 31.756383842952911 ], [ 35.227366861651298, 31.756439624186243 ], [ 35.227178683926532, 31.756501434310128 ], [ 35.226947043932483, 31.756662184158266 ], [ 35.226816835602982, 31.756822915765515 ], [ 35.226708362527177, 31.756952800362622 ], [ 35.226592619518222, 31.757138239725425 ], [ 35.226512965139342, 31.757286606926577 ], [ 35.226332046173653, 31.757255704966187 ], [ 35.226151128784053, 31.757231025472301 ], [ 35.225962931454056, 31.757218702217678 ], [ 35.225745703848368, 31.757187805567689 ], [ 35.225419968983189, 31.757144661426683 ], [ 35.225231876078922, 31.757126114350775 ], [ 35.22510150076473, 31.757027203320916 ], [ 35.225043611809518, 31.756810860324777 ], [ 35.224976225804738, 31.756603807824426 ], [ 35.224911051820811, 31.75637502048119 ], [ 35.224860351864727, 31.756208097282453 ], [ 35.224795179828583, 31.755985622774748 ], [ 35.224773405807213, 31.755843495611106 ], [ 35.224729971598059, 31.755596216859971 ], [ 35.22467915875923, 31.755392227786054 ], [ 35.224664758508183, 31.755182010169701 ], [ 35.224628393840177, 31.75492237496502 ], [ 35.224584930919619, 31.754539097996318 ], [ 35.224563128043592, 31.754260882441745 ], [ 35.224541438893922, 31.754019822846395 ], [ 35.224526898830639, 31.753648896495434 ], [ 35.224505009515902, 31.753457257984969 ], [ 35.224438569131458, 31.752723798225908 ], [ 35.22438064585161, 31.752328077872118 ], [ 35.22435151388553, 31.75182746840985 ], [ 35.22432251554612, 31.751456453987519 ], [ 35.224278971122594, 31.751172109103539 ], [ 35.224257292678807, 31.750974337897283 ], [ 35.22447427550469, 31.750918660044533 ], [ 35.224669739610675, 31.750918629081404 ], [ 35.224894195114629, 31.750770239663243 ], [ 35.224937515529234, 31.750510591517443 ], [ 35.22487950777905, 31.750213893851626 ], [ 35.224821737706115, 31.75003660039377 ], [ 35.22477831423128, 31.749826477448714 ], [ 35.224749251237476, 31.749647195290784 ], [ 35.22471311848021, 31.749474046795999 ], [ 35.224676989928511, 31.749319566480306 ], [ 35.224604554321282, 31.749158869184491 ], [ 35.224539399876313, 31.748991947960171 ], [ 35.224488707286966, 31.748837379697203 ], [ 35.224452358941214, 31.748639610764844 ], [ 35.224416236446963, 31.748509750729831 ], [ 35.224459577146114, 31.74834281234811 ], [ 35.224488568390846, 31.748194454225228 ], [ 35.224524603891808, 31.74792245198234 ], [ 35.224553466593129, 31.747669028868092 ], [ 35.224567893190716, 31.747520673015636 ], [ 35.224560581542391, 31.747384585699223 ], [ 35.224502706544094, 31.747199175424814 ], [ 35.224401463755399, 31.747050927971266 ], [ 35.224198704603154, 31.746952027205452 ], [ 35.223974430532692, 31.746921128575188 ], [ 35.22396197439722, 31.746908324283105 ], [ 35.224659912088939, 31.74650355707286 ], [ 35.224919711338849, 31.746352817083281 ], [ 35.2251556579618, 31.74620000620547 ], [ 35.225030075846583, 31.746230238437974 ], [ 35.224871776717478, 31.746258221196037 ], [ 35.224775638738521, 31.746286193827078 ], [ 35.224687097001315, 31.746303343028629 ], [ 35.224604885097605, 31.746309669017524 ], [ 35.224542511395171, 31.746303365979045 ], [ 35.224495969605123, 31.746303373331827 ], [ 35.224453759108094, 31.74632322058849 ], [ 35.224423268635384, 31.746368317665073 ], [ 35.224407448367081, 31.746416117966842 ], [ 35.224396818794247, 31.746554102006908 ], [ 35.224393765389024, 31.746587470771576 ], [ 35.224357783376568, 31.746616335473 ], [ 35.224308182006844, 31.746621754309924 ], [ 35.224245913844968, 31.746616352955655 ], [ 35.224193144622078, 31.746613655631581 ], [ 35.224154097357022, 31.746620876458827 ], [ 35.224132993150505, 31.746636211104867 ], [ 35.224109782969023, 31.746674092211737 ], [ 35.224080243769137, 31.746727305666337 ], [ 35.224053867991415, 31.746767892788206 ], [ 35.224033720807988, 31.74681749739937 ], [ 35.224006287897424, 31.74684996806424 ], [ 35.223967243744717, 31.746872520207098 ], [ 35.223906034783177, 31.746886057279863 ], [ 35.223845878539692, 31.746886968325398 ], [ 35.22378994154252, 31.746877056554169 ], [ 35.223753002635263, 31.746873454791121 ], [ 35.223697174562346, 31.746879776181679 ], [ 35.223558393835063, 31.746885659131728 ], [ 35.2235046520548, 31.746773026701003 ], [ 35.223419865657988, 31.746578421126287 ], [ 35.222908049403109, 31.745185776307114 ], [ 35.222890205625909, 31.74514429399472 ], [ 35.222879541133423, 31.745117149985507 ], [ 35.22252982780973, 31.744738154470397 ], [ 35.222416694444853, 31.744739884033699 ], [ 35.222519029292023, 31.744564009578834 ], [ 35.222761719829855, 31.744361961346943 ], [ 35.222747047298611, 31.744345730236116 ], [ 35.222711158035679, 31.744307857875153 ], [ 35.22269532552766, 31.744296136154393 ], [ 35.222653105466762, 31.744264577607304 ], [ 35.222593998488236, 31.744225806692722 ], [ 35.222532674630251, 31.744183428682632 ], [ 35.22248728828982, 31.744150066839047 ], [ 35.22241561988298, 31.74409596624421 ], [ 35.222342684972951, 31.744040963941153 ], [ 35.222300465494577, 31.744011208967645 ], [ 35.222246741419141, 31.743974240825494 ], [ 35.22215480899213, 31.743911124461427 ], [ 35.222088316939733, 31.743882274644776 ], [ 35.22203776144223, 31.743857931816709 ], [ 35.22182973179391, 31.743741622332944 ], [ 35.221782238949487, 31.743728101135169 ], [ 35.221684084432852, 31.743685727735269 ], [ 35.221586873643837, 31.743609985831217 ], [ 35.221469714476179, 31.74351981699186 ], [ 35.221372505022515, 31.743449485998038 ], [ 35.221260520027279, 31.743373745810398 ], [ 35.221252287310044, 31.743367704531927 ], [ 35.221236144814696, 31.743390613555739 ], [ 35.221207019780053, 31.743403062877949 ], [ 35.221163228923295, 31.743434182337182 ], [ 35.220901955360901, 31.743591137665447 ], [ 35.220877360217521, 31.743558674395135 ], [ 35.220841572131263, 31.743490138726049 ], [ 35.220823518533123, 31.74344865614006 ], [ 35.220804618136313, 31.743392744124293 ], [ 35.220794058730604, 31.743358475335899 ], [ 35.220780123688392, 31.743332323594867 ], [ 35.220758061143485, 31.743298056282335 ], [ 35.220731672058349, 31.743265593212836 ], [ 35.220712671757603, 31.743241245805603 ], [ 35.220667389064893, 31.743190748220812 ], [ 35.220641001144379, 31.743164598054062 ], [ 35.220591288797678, 31.743129432389239 ], [ 35.22056279119019, 31.743108693550553 ], [ 35.220550123119722, 31.743085247160657 ], [ 35.220536397532079, 31.743049175058651 ], [ 35.2205258356055, 31.74299957486345 ], [ 35.220506822291625, 31.742899472356271 ], [ 35.220493202281233, 31.742863400235215 ], [ 35.220456273814456, 31.742910300892969 ], [ 35.220402355405028, 31.742962614752333 ], [ 35.220349597800329, 31.743014928443063 ], [ 35.220326277740718, 31.743031164590942 ], [ 35.220265181693598, 31.743076264520433 ], [ 35.220232472364692, 31.743111440587466 ], [ 35.220208311826617, 31.743150222969067 ], [ 35.220178557691639, 31.743187202347027 ], [ 35.220140676236156, 31.743216967954513 ], [ 35.220091080540719, 31.743246734994656 ], [ 35.220011906208654, 31.743102449360538 ], [ 35.21997497257076, 31.74312049080439 ], [ 35.219932766920884, 31.743166490107939 ], [ 35.21989267249905, 31.743216096524478 ], [ 35.219851416266863, 31.743260291992851 ], [ 35.219813535573905, 31.743295468578818 ], [ 35.219767001099541, 31.743330646198 ], [ 35.219708963278023, 31.743364923337552 ], [ 35.219661476114254, 31.743382965958226 ], [ 35.219613038539009, 31.743397401290686 ], [ 35.219555948070379, 31.743417248710976 ], [ 35.219504343424916, 31.743425371456965 ], [ 35.219505405500911, 31.743466856246972 ], [ 35.219502249009992, 31.743525476610895 ], [ 35.219489592711696, 31.743573275948609 ], [ 35.219476827941925, 31.743603038378023 ], [ 35.21919717335151, 31.743667102248612 ], [ 35.218835315911278, 31.743786187454482 ], [ 35.218490128261735, 31.743880919946754 ], [ 35.218472399199484, 31.74388543113723 ], [ 35.218236857467986, 31.743956702782022 ], [ 35.217969975092423, 31.744051425328852 ], [ 35.217753640865389, 31.744129908797369 ], [ 35.217734645564875, 31.744136223709642 ], [ 35.217564848241153, 31.744190352134812 ], [ 35.217038146653081, 31.744347326694591 ], [ 35.216731473366877, 31.744427440683207 ], [ 35.216677745831198, 31.744349346023899 ], [ 35.216618528225716, 31.74425330513483 ], [ 35.216180684136788, 31.74357082940055 ], [ 35.214929547139754, 31.742345600780613 ], [ 35.214841844887772, 31.74230304086651 ], [ 35.214798362711306, 31.742277792733447 ], [ 35.214739056333443, 31.742303139442019 ], [ 35.214666031842114, 31.742338768276372 ], [ 35.214300486464047, 31.74251736277354 ], [ 35.21419472701038, 31.742368025234175 ], [ 35.214031131012227, 31.742168729714731 ], [ 35.213961569576938, 31.742016322952114 ], [ 35.213819078417167, 31.74179087202107 ], [ 35.213737804957191, 31.741651993687405 ], [ 35.21361853279231, 31.7414364611226 ], [ 35.213523536361407, 31.741251589475716 ], [ 35.213394760523428, 31.74096481150681 ], [ 35.213318973341998, 31.740798065446839 ], [ 35.213313276457214, 31.740816553696778 ], [ 35.213262634086171, 31.740946332926526 ], [ 35.213175804365015, 31.741181269917007 ], [ 35.21307451871008, 31.741440918414373 ], [ 35.212987684627691, 31.74163878937749 ], [ 35.212915307473324, 31.741830436569622 ], [ 35.212814122553397, 31.74205292876341 ], [ 35.212719899525098, 31.742244577274864 ], [ 35.212567957401625, 31.742522716474497 ], [ 35.212452208443821, 31.742757744951842 ], [ 35.212356296314759, 31.742959764510143 ], [ 35.212283915785029, 31.743139056013465 ], [ 35.212211534460891, 31.74331221491769 ], [ 35.2121463276059, 31.743466705127219 ], [ 35.212066769456783, 31.743639774192541 ], [ 35.212016123819382, 31.743769643054438 ], [ 35.211929287310085, 31.743992133618494 ], [ 35.211820814328121, 31.744196227723155 ], [ 35.211705057984453, 31.744387786489771 ], [ 35.211603651538013, 31.744548591390185 ], [ 35.211531266896806, 31.744709304397624 ], [ 35.21145181442553, 31.74491330635054 ], [ 35.211386603797308, 31.745049308294345 ], [ 35.211147701912935, 31.745469671497478 ], [ 35.21095237702243, 31.745784966966891 ], [ 35.210843898519556, 31.745970482162686 ], [ 35.210692046889498, 31.74619910763484 ], [ 35.210581879026492, 31.746388139876963 ], [ 35.210117317535143, 31.746592159083082 ], [ 35.209979187938124, 31.74690321174694 ], [ 35.209893289335277, 31.747055717563082 ], [ 35.209755888264496, 31.747214177678043 ], [ 35.209591046971262, 31.747375614854448 ], [ 35.209463885010841, 31.747586832185593 ], [ 35.209364157970803, 31.747713004293111 ], [ 35.20924395523722, 31.747821591117024 ], [ 35.20903383692557, 31.748005304855457 ], [ 35.208831207471221, 31.748113894264037 ], [ 35.208594063331788, 31.748157912366448 ], [ 35.208312278900515, 31.748272365530458 ], [ 35.208140462420872, 31.748304656769506 ], [ 35.207837988770542, 31.748351561275985 ], [ 35.20767377010597, 31.748363920897972 ], [ 35.207488231753651, 31.748355087464031 ], [ 35.207189239085643, 31.748358070478755 ], [ 35.206941855024056, 31.748358075678244 ], [ 35.206721910877619, 31.748346265724063 ], [ 35.206567191282915, 31.748387392611079 ], [ 35.20652255300233, 31.74859860553526 ], [ 35.206374801647428, 31.748786462294742 ], [ 35.20597269410549, 31.748724781716327 ], [ 35.205733434813467, 31.748668689692849 ], [ 35.205396762159118, 31.748554248638715 ], [ 35.205190642835085, 31.748474977903598 ], [ 35.20488468335391, 31.748337087317484 ], [ 35.20468204770269, 31.748246181938587 ], [ 35.204534292769445, 31.748166909989592 ], [ 35.204362475210878, 31.748058418076358 ], [ 35.204166489679039, 31.747943973710555 ], [ 35.204029184020378, 31.747858839194816 ], [ 35.203852090935683, 31.747707689285608 ], [ 35.203707820868139, 31.747555186537813 ], [ 35.203525769036681, 31.747355607040518 ], [ 35.203374534927903, 31.747167841701408 ], [ 35.20323702096978, 31.747009386280887 ], [ 35.203048004767474, 31.74687735425109 ], [ 35.202816456504451, 31.746804933411184 ], [ 35.202555251965684, 31.746763895951709 ], [ 35.202328558264227, 31.74672872051482 ], [ 35.202005508651666, 31.746711038713624 ], [ 35.201768367171276, 31.746672885993892 ], [ 35.20157597361942, 31.746637709918019 ], [ 35.201417773170711, 31.746637706329729 ], [ 35.20121862404072, 31.746643563529531 ], [ 35.201036360752482, 31.746652396953582 ], [ 35.200799216199087, 31.7467081245521 ], [ 35.200599326102193, 31.746763492083456 ], [ 35.200371470287692, 31.74677331522301 ], [ 35.200214533381178, 31.746833012355076 ], [ 35.200052213892882, 31.746891897449341 ], [ 35.199891794073451, 31.746946724098496 ], [ 35.199691373688161, 31.747032752931847 ], [ 35.199498340085668, 31.747128251110048 ], [ 35.199316069875572, 31.747243680208079 ], [ 35.199206093824706, 31.74734143583229 ], [ 35.199065194391821, 31.747447036127639 ], [ 35.198946879969732, 31.747550562987175 ], [ 35.198811570709303, 31.747702157352951 ], [ 35.198650191080034, 31.747884052405148 ], [ 35.198457252813462, 31.748095165572391 ], [ 35.198384950353379, 31.748223224225473 ], [ 35.198258605340428, 31.748446154373429 ], [ 35.198200233616738, 31.748573221554039 ], [ 35.198054573926036, 31.748795879994503 ], [ 35.197921683241788, 31.749027737730351 ], [ 35.197809057111471, 31.749238673558565 ], [ 35.197755117038298, 31.749364838902874 ], [ 35.197634893970076, 31.749537535936273 ], [ 35.197550136382041, 31.749652877409527 ], [ 35.197422949464816, 31.749790762640139 ], [ 35.197264628622285, 31.74991475758987 ], [ 35.197059447442804, 31.750034060059818 ], [ 35.196886458752523, 31.75011720010934 ], [ 35.196679486509758, 31.750187351303033 ], [ 35.196458374885083, 31.750216647700181 ], [ 35.196220060725487, 31.750236202685606 ], [ 35.195978479368343, 31.75020390091963 ], [ 35.195792206293895, 31.750123353727755 ], [ 35.195565304615336, 31.749996087881392 ], [ 35.195352865772911, 31.749836897338337 ], [ 35.195228019883061, 31.749744900224741 ], [ 35.195114580621656, 31.749572819970492 ], [ 35.195013484579853, 31.749454670859649 ], [ 35.194896667481601, 31.749295306172137 ], [ 35.194795886946579, 31.749193570489567 ], [ 35.194674001632919, 31.749062883887536 ], [ 35.194550323140774, 31.748925974295837 ], [ 35.194426641874863, 31.74881837455143 ], [ 35.194288819185616, 31.74870518212467 ], [ 35.194161759000352, 31.748618053739367 ], [ 35.194033432448954, 31.748532097522173 ], [ 35.193837563502242, 31.748423499283735 ], [ 35.193668714487949, 31.748302457552779 ], [ 35.193517489252507, 31.748195846625691 ], [ 35.193393807146784, 31.748113677905355 ], [ 35.193287963399605, 31.74801419518819 ], [ 35.193193942249778, 31.747897848912221 ], [ 35.193072278628321, 31.747712328571712 ], [ 35.192956523755008, 31.747542140012047 ], [ 35.192851212975867, 31.747409108320912 ], [ 35.192769543357862, 31.747273373161164 ], [ 35.192683654833246, 31.747118788988317 ], [ 35.192625308329269, 31.746992705616805 ], [ 35.192570240703397, 31.74681106883618 ], [ 35.192494803761228, 31.746635923415237 ], [ 35.192418938099216, 31.746514076977753 ], [ 35.192302230877686, 31.746383929646758 ], [ 35.192149857911382, 31.746212744811235 ], [ 35.192009828446913, 31.746077995551929 ], [ 35.191794028721276, 31.745909509643472 ], [ 35.191464764436247, 31.745840485486791 ], [ 35.191174219427623, 31.74586336257223 ], [ 35.190877658304899, 31.7458889438944 ], [ 35.190677026310276, 31.745937531947199 ], [ 35.190506260205552, 31.74599117327601 ], [ 35.190359556640523, 31.746042291858785 ], [ 35.190096015916687, 31.746144622053876 ], [ 35.189928307675274, 31.746211069156775 ], [ 35.189775372365361, 31.746290233755911 ], [ 35.189615151247885, 31.746391402358213 ], [ 35.189435405640104, 31.746491125515128 ], [ 35.189186847271827, 31.746603556249454 ], [ 35.189010060492286, 31.746675141575125 ], [ 35.188803405060469, 31.74675438869242 ], [ 35.18856379894315, 31.746966653597998 ], [ 35.188387111709737, 31.747066285461944 ], [ 35.188267203029618, 31.74716862981089 ], [ 35.188117952508648, 31.747282423739708 ], [ 35.18788152687813, 31.747397378628836 ], [ 35.187674658712318, 31.74747157354415 ], [ 35.187462086979224, 31.747568674238661 ], [ 35.187297334999847, 31.747604455512242 ], [ 35.187081712888371, 31.747642754841387 ], [ 35.186818178520511, 31.747668331188557 ], [ 35.186554652840059, 31.747647822692368 ], [ 35.186350973515687, 31.747596659392364 ], [ 35.186078285360864, 31.747479290416731 ], [ 35.185931708852053, 31.74739783263081 ], [ 35.1857989592785, 31.747310424513113 ], [ 35.185622000234062, 31.747169981240614 ], [ 35.185415286069151, 31.747000133130264 ], [ 35.185297845832864, 31.746886753613378 ], [ 35.185151284606327, 31.746739189648732 ], [ 35.18501632412007, 31.746634014016362 ], [ 35.184954610386619, 31.746511443811119 ], [ 35.184797174876422, 31.746388137417863 ], [ 35.184733351790022, 31.746261147733211 ], [ 35.184530434582825, 31.746119436332677 ], [ 35.184416375236303, 31.745998931934697 ], [ 35.184251674102597, 31.745807173634795 ], [ 35.184100791747468, 31.745648154314967 ], [ 35.183983152091479, 31.745496715643441 ], [ 35.183820238994528, 31.74534048977878 ], [ 35.183698896149863, 31.745235314926088 ], [ 35.183571651029268, 31.745096860884235 ], [ 35.183415814015213, 31.744923680948276 ], [ 35.183307348534285, 31.744813818236572 ], [ 35.183262529976147, 31.744664374966398 ], [ 35.183081982127142, 31.744565322239083 ], [ 35.182989664620472, 31.744454018996361 ], [ 35.182823156096596, 31.744344146105615 ], [ 35.182633023354363, 31.744169516431352 ], [ 35.182459245553858, 31.744010130479765 ], [ 35.182340858931717, 31.74391343217312 ], [ 35.182201470707412, 31.743819074900038 ], [ 35.181999829066768, 31.743677449824851 ], [ 35.181809689145375, 31.743544394002495 ], [ 35.18162502917999, 31.743445428650745 ], [ 35.181482048513985, 31.74337433756903 ], [ 35.18123955496889, 31.743283026939409 ], [ 35.1809841848739, 31.743199469358871 ], [ 35.180781466940324, 31.743153077085307 ], [ 35.180510267854913, 31.743068613774618 ], [ 35.180254996095087, 31.74301761139073 ], [ 35.180035917648667, 31.742985103259965 ], [ 35.17976365886387, 31.742921560984353 ], [ 35.179502151653494, 31.74290726102074 ], [ 35.17922133011929, 31.742899810737864 ], [ 35.179050158909945, 31.74288715097655 ], [ 35.178880046266379, 31.742862857383173 ], [ 35.178716900482073, 31.742832793151447 ], [ 35.178473026957704, 31.742785216507258 ], [ 35.178128269126049, 31.742720303204411 ], [ 35.177906343816304, 31.742684003071581 ], [ 35.177740771406718, 31.742653937085361 ], [ 35.177431265871846, 31.742577395447483 ], [ 35.177263799973787, 31.742527578011288 ], [ 35.17706415123557, 31.742462692628965 ], [ 35.176821459591714, 31.742350270340197 ], [ 35.17666054598152, 31.742271774820157 ], [ 35.176475977862559, 31.742245130070241 ], [ 35.176343354948052, 31.742141478834114 ], [ 35.176015501528504, 31.742026060144624 ], [ 35.175837919088202, 31.741934573285526 ], [ 35.175709833112926, 31.741837686248161 ], [ 35.175595464719329, 31.741746664180774 ], [ 35.175437200736731, 31.741638406783107 ], [ 35.175242209499494, 31.741538618147811 ], [ 35.175035715756408, 31.741438826564117 ], [ 35.174826040848963, 31.741388364896352 ], [ 35.174516517467225, 31.741388022170796 ], [ 35.174352101506507, 31.741382121527554 ], [ 35.174132179188319, 31.741366647936886 ], [ 35.173885984434428, 31.741336557772335 ], [ 35.173575523271687, 31.74130049942551 ], [ 35.173302096306472, 31.741286905332512 ], [ 35.173007665819426, 31.741281873022466 ], [ 35.17277962302164, 31.741251785188638 ], [ 35.172545972965629, 31.741263360842872 ], [ 35.172302719510412, 31.741274933651354 ], [ 35.172088377172862, 31.741299139173357 ], [ 35.171774199131299, 31.741331886364911 ], [ 35.171443456473284, 31.741353265238253 ], [ 35.171191647341061, 31.741385215438608 ], [ 35.17091588244439, 31.741417068667097 ], [ 35.170725604725504, 31.741429824767266 ], [ 35.170507996156964, 31.741437522981791 ], [ 35.170276565449257, 31.741438363094687 ], [ 35.170075738081792, 31.741441285276604 ], [ 35.169807159567277, 31.741444098592005 ], [ 35.169537210209278, 31.74144402505862 ], [ 35.169270744852099, 31.741440073974783 ], [ 35.169080684255121, 31.741436143523739 ], [ 35.168862868193379, 31.741434098932565 ], [ 35.168660350836532, 31.74144080616707 ], [ 35.168464060918296, 31.741444628927376 ], [ 35.168144395310129, 31.741472676021807 ], [ 35.167920552020156, 31.741500930138216 ], [ 35.167752539590538, 31.74151693481442 ], [ 35.167530811206291, 31.74153382559188 ], [ 35.167343486380524, 31.741549824142055 ], [ 35.167187819729946, 31.741568897938524 ], [ 35.167002280298881, 31.741606089893377 ], [ 35.166784449678566, 31.741639213746392 ], [ 35.166575176568379, 31.741648711396486 ], [ 35.166289906228322, 31.741693358007584 ], [ 35.165995042308289, 31.74171356105909 ], [ 35.165801908276777, 31.741740017007775 ], [ 35.165539118684677, 31.741777183418765 ], [ 35.165177748249384, 31.741847326564422 ], [ 35.164937535933163, 31.741898657662471 ], [ 35.164719487490274, 31.741944313577367 ], [ 35.164459103583276, 31.742029366536826 ], [ 35.164235030553968, 31.742095221086512 ], [ 35.163968635340986, 31.742168998071246 ], [ 35.163765461630952, 31.742224306821026 ], [ 35.163604828007159, 31.742255008468987 ], [ 35.163411803744239, 31.742267752767262 ], [ 35.163225198833807, 31.742321352473283 ], [ 35.163049554183551, 31.742408504134108 ], [ 35.16290377352292, 31.742498821737218 ], [ 35.162735380690762, 31.74265144934326 ], [ 35.162620715718589, 31.742777038963027 ], [ 35.1624499664605, 31.743004518627409 ], [ 35.162330009330056, 31.743162572690281 ], [ 35.162233919526926, 31.743282757004586 ], [ 35.162146799833735, 31.743402944217575 ], [ 35.162051770380678, 31.743511044006333 ], [ 35.161838687537369, 31.743764121175587 ], [ 35.161666268610716, 31.743942358413463 ], [ 35.161515486325534, 31.744114650511197 ], [ 35.161311715456009, 31.744307757162833 ], [ 35.16113949866677, 31.744500874194671 ], [ 35.160970065088939, 31.744608226408122 ], [ 35.160774483306689, 31.744662450735756 ], [ 35.160545242138646, 31.744702774763262 ], [ 35.160359909749495, 31.744729676054583 ], [ 35.160130674327419, 31.744757193128791 ], [ 35.159902600131609, 31.744783718165568 ], [ 35.159608784525389, 31.744795339256704 ], [ 35.159308754282662, 31.744782156715743 ], [ 35.15907468501284, 31.744766111033261 ], [ 35.158877771958991, 31.744734205711229 ], [ 35.158688790248718, 31.744669565930419 ], [ 35.158525464069129, 31.744584102468476 ], [ 35.158302542924325, 31.744434135289243 ], [ 35.158161283178472, 31.744330732605498 ], [ 35.158022350898605, 31.744216508461349 ], [ 35.15788058336679, 31.744074596463832 ], [ 35.157762659862186, 31.743946942195219 ], [ 35.157557396431002, 31.743735835011499 ], [ 35.157376491272878, 31.743566221387827 ], [ 35.157263939264624, 31.743462377360583 ], [ 35.157153286470951, 31.743359796520554 ], [ 35.157045390177672, 31.743232866767862 ], [ 35.156950793716462, 31.743101342458573 ], [ 35.156811145988023, 31.742948066778826 ], [ 35.156680367738552, 31.742786497280434 ], [ 35.156558771847131, 31.742623848875326 ], [ 35.156446569149061, 31.742460482407392 ], [ 35.156323625411545, 31.742252831146363 ], [ 35.156208907141654, 31.742057898899535 ], [ 35.156074981895969, 31.74186422184853 ], [ 35.155961622130846, 31.741696976558362 ], [ 35.155875143876749, 31.741586196966182 ], [ 35.15575882799871, 31.741422647932666 ], [ 35.155664368532044, 31.741238003946524 ], [ 35.155565687917814, 31.741053899375963 ], [ 35.155495580137796, 31.74092003852288 ], [ 35.155422671719968, 31.740694007866999 ], [ 35.155322620265004, 31.740509902566505 ], [ 35.15521601685645, 31.740343741395915 ], [ 35.155130702673532, 31.740230887479019 ], [ 35.155061872245867, 31.74007862919942 ], [ 35.154978196014234, 31.739862965325724 ], [ 35.154888931861841, 31.739638370940636 ], [ 35.154793133504683, 31.739398442553661 ], [ 35.154717327015575, 31.739269268622998 ], [ 35.154572858567427, 31.739070806017512 ], [ 35.154431118986871, 31.738901203399973 ], [ 35.154237481612448, 31.738691448039905 ], [ 35.154130851690503, 31.738581831684424 ], [ 35.153975589181691, 31.738443427106027 ], [ 35.153801448973859, 31.738284182188583 ], [ 35.15363711590836, 31.738138739188084 ], [ 35.153471514905469, 31.737997173406644 ], [ 35.153267297002671, 31.737845401057044 ], [ 35.153151690198037, 31.737752464431289 ], [ 35.152929015595269, 31.73758354902688 ], [ 35.152717305226794, 31.737435109594831 ], [ 35.152588393576814, 31.737359302145585 ], [ 35.152454519263792, 31.737289083992753 ], [ 35.152320540382945, 31.737217512885877 ], [ 35.152149740950165, 31.737131677373291 ], [ 35.151995613430728, 31.737048644210148 ], [ 35.151810674591871, 31.736961900581537 ], [ 35.151586255791322, 31.736898949088523 ], [ 35.151346760156827, 31.736812993833976 ], [ 35.151333677691291, 31.736808118416388 ], [ 35.151357011245345, 31.736786573989249 ], [ 35.151037484461533, 31.73659137118198 ], [ 35.151033252933196, 31.736609676900631 ], [ 35.15075315689073, 31.736478971923525 ], [ 35.150417131964581, 31.736350136536448 ], [ 35.1499163141862, 31.736158010475648 ], [ 35.147867640795965, 31.73529378042344 ], [ 35.144637338447566, 31.731987127343416 ], [ 35.142272225474478, 31.729889381584673 ], [ 35.140195090894075, 31.728827689352343 ], [ 35.138984689965845, 31.728697749092813 ], [ 35.138870421237357, 31.728689032673902 ], [ 35.138512110070288, 31.728654577790831 ], [ 35.138363651037068, 31.728649991744099 ], [ 35.138417365955561, 31.728640369782543 ], [ 35.138432350689655, 31.728638483656219 ], [ 35.138117301323483, 31.72860468133355 ], [ 35.136991341376294, 31.729319346464077 ], [ 35.136239904412349, 31.730823589498403 ], [ 35.136180667559493, 31.732895461925914 ], [ 35.136205446455492, 31.738396019294445 ], [ 35.136376491079801, 31.741306639000815 ], [ 35.137422785417847, 31.742253319663156 ], [ 35.13712308672482, 31.742381223947579 ], [ 35.137979812504, 31.743250060591944 ], [ 35.138352983301537, 31.74309495666088 ], [ 35.138886009068699, 31.74357717811014 ], [ 35.14122559486875, 31.741235092941395 ], [ 35.139726101990362, 31.739261101486093 ], [ 35.141632716856435, 31.736721462693929 ], [ 35.141171270016173, 31.736227924487181 ], [ 35.141345038617892, 31.735340052156538 ], [ 35.142758747234964, 31.735982046870173 ], [ 35.14391267329384, 31.736944599549716 ], [ 35.14495085025812, 31.738252404769824 ], [ 35.144948015004829, 31.742692192312397 ], [ 35.144830478447375, 31.745948070818809 ], [ 35.14537858014932, 31.746367593727872 ], [ 35.145955758880611, 31.746540563077239 ], [ 35.14725536144558, 31.745480491943326 ], [ 35.148409895166587, 31.745530335271283 ], [ 35.149159937239467, 31.746246006357797 ], [ 35.149159461558632, 31.747047476123278 ], [ 35.149176237433487, 31.747411017224263 ], [ 35.149192782290143, 31.747986311451928 ], [ 35.149141810739927, 31.748691081325369 ], [ 35.149848618188372, 31.74903661208543 ], [ 35.150808067904677, 31.748878745316148 ], [ 35.151969622738569, 31.748721044798518 ], [ 35.152474339823875, 31.749052048187522 ], [ 35.15294547477226, 31.749426234385112 ], [ 35.15318091702612, 31.749843432512208 ], [ 35.152843795293144, 31.750648734249015 ], [ 35.15272557933978, 31.751425355083928 ], [ 35.153045167360951, 31.751799479247943 ], [ 35.154324308680074, 31.752073247169353 ], [ 35.155771732168212, 31.752476571443509 ], [ 35.156730389511679, 31.75391519518648 ], [ 35.157066874912388, 31.754318084285917 ], [ 35.157268394544218, 31.755296209065452 ], [ 35.156488837357841, 31.756089090296516 ], [ 35.156476798567539, 31.756101350849427 ], [ 35.156352500038452, 31.756233965309171 ], [ 35.156228986522727, 31.756480573025662 ], [ 35.156107224044483, 31.756605973444277 ], [ 35.155193914717593, 31.757598464052318 ], [ 35.154826646620556, 31.75830635927964 ], [ 35.154733154871714, 31.758455307461855 ], [ 35.154062862325198, 31.758929594608787 ], [ 35.15325749783382, 31.759520973533089 ], [ 35.152920333383918, 31.759768844748461 ], [ 35.152914737022158, 31.759772630230351 ], [ 35.15288939416147, 31.759791288149778 ], [ 35.152714110861751, 31.759911162363849 ], [ 35.152708166204974, 31.759971854020169 ], [ 35.152688062117818, 31.760060226525496 ], [ 35.152651032450244, 31.760215328570673 ], [ 35.152620473510282, 31.760312715250322 ], [ 35.152583410474001, 31.760527338921751 ], [ 35.152556967430463, 31.760625629098232 ], [ 35.152539904996296, 31.76074827285704 ], [ 35.152509348782509, 31.760840248442555 ], [ 35.152492308388275, 31.760923211092059 ], [ 35.152482840138155, 31.761055778207371 ], [ 35.152458263568896, 31.761213590774748 ], [ 35.152448818408814, 31.761304673098923 ], [ 35.152435169709804, 31.761362385505084 ], [ 35.152394831952961, 31.761391228034633 ], [ 35.152348481122687, 31.76141375519218 ], [ 35.152317810361836, 31.761521062010726 ], [ 35.152387581665607, 31.761521090508325 ], [ 35.152453981279621, 31.761510295473968 ], [ 35.152502542731469, 31.761498591298075 ], [ 35.152585927991055, 31.761503134447196 ], [ 35.152651475109003, 31.761506768455696 ], [ 35.152699907923214, 31.761536548943052 ], [ 35.152734719766208, 31.761574440479482 ], [ 35.152748313226155, 31.761615930780412 ], [ 35.152747949340338, 31.761700974452065 ], [ 35.152807549845065, 31.761768997577491 ], [ 35.152941456233087, 31.761845347660238 ], [ 35.153048665935636, 31.761906445695519 ], [ 35.153227063318724, 31.762463766366103 ], [ 35.153968352994653, 31.762899111022307 ], [ 35.154673968071258, 31.763143607434948 ], [ 35.154772073702091, 31.763456675399603 ], [ 35.154659861554386, 31.76405951367413 ], [ 35.154471823152441, 31.764136367335748 ], [ 35.154379968072497, 31.764174208713705 ], [ 35.154200485333334, 31.764239972663681 ], [ 35.153900752956346, 31.764341762475926 ], [ 35.153756016123914, 31.76437417137657 ], [ 35.153620999338109, 31.764390350814686 ], [ 35.153373885448495, 31.764397466841217 ], [ 35.153060379874177, 31.764397340912915 ], [ 35.152935828092517, 31.764386468554601 ], [ 35.152880940732075, 31.764381937160167 ], [ 35.152569568473368, 31.764342129800163 ], [ 35.152252906481166, 31.764323963743383 ], [ 35.152113473844054, 31.764308575275876 ], [ 35.151847707495037, 31.764260668271259 ], [ 35.151783223224108, 31.764240801116472 ], [ 35.151712412699155, 31.764208305512874 ], [ 35.151642871979114, 31.764170399338191 ], [ 35.151523623136661, 31.764116239335493 ], [ 35.151449756776437, 31.764074723888225 ], [ 35.151388662367118, 31.764034115554971 ], [ 35.151324197907527, 31.7639799781447 ], [ 35.151373281274822, 31.763981080791648 ], [ 35.151380917926616, 31.763916962937532 ], [ 35.151388850267104, 31.763889640397075 ], [ 35.151396897924215, 31.763845182888151 ], [ 35.151333220904952, 31.763336156210457 ], [ 35.151273401575487, 31.76309696251349 ], [ 35.151139049036011, 31.762877307642871 ], [ 35.150989648289602, 31.762762079747411 ], [ 35.150677921979657, 31.762615038465004 ], [ 35.149846201516326, 31.762518999545279 ], [ 35.149189165528178, 31.762441699155342 ], [ 35.148894685771857, 31.762409285238505 ], [ 35.148562737290419, 31.7623716235376 ], [ 35.146611888362798, 31.762167297932145 ], [ 35.145875902414033, 31.762090215177796 ], [ 35.145815951547512, 31.762083423805478 ], [ 35.145720006565092, 31.762076525650041 ], [ 35.145516066101003, 31.762090049401664 ], [ 35.145208091014119, 31.762202637102661 ], [ 35.145020063630653, 31.76242124657394 ], [ 35.144931921409352, 31.762592014548293 ], [ 35.143740570640745, 31.762348857185923 ], [ 35.142988915546425, 31.762184542067342 ], [ 35.142865520494169, 31.762186556776669 ], [ 35.142127284597727, 31.7621636520532 ], [ 35.140355916848719, 31.762084133331623 ], [ 35.140087471645131, 31.762112045444557 ], [ 35.139692043050559, 31.762140974781001 ], [ 35.139148507812813, 31.76218822473021 ], [ 35.138956880021048, 31.76270307883264 ], [ 35.138956854956746, 31.762738701618446 ], [ 35.138968060262926, 31.763465592791395 ], [ 35.1390301613269, 31.763567532913338 ], [ 35.139008041692087, 31.763650491108173 ], [ 35.138979255330135, 31.764057207454265 ], [ 35.138967565383773, 31.764169029959792 ], [ 35.138916877152816, 31.764348470634165 ], [ 35.13875684595191, 31.765105034329615 ], [ 35.138728095756306, 31.76530883595343 ], [ 35.13870591810133, 31.765472959878252 ], [ 35.138703702450208, 31.765620860922596 ], [ 35.138768984065436, 31.765854471793237 ], [ 35.138857571101617, 31.766121462786259 ], [ 35.13892386253962, 31.766271202727197 ], [ 35.138981865725313, 31.76634879097616 ], [ 35.139097711801988, 31.766432000280648 ], [ 35.139353271075748, 31.766886028311355 ], [ 35.139436048476959, 31.767011156086895 ], [ 35.140051970195444, 31.767655023352262 ], [ 35.139742088183922, 31.770170464916564 ], [ 35.138680146402265, 31.770871915280612 ], [ 35.137719498295048, 31.773533291924334 ], [ 35.13583532561529, 31.774819309580472 ], [ 35.134876020874543, 31.7755207828449 ], [ 35.134122004784452, 31.776544139092291 ], [ 35.133813692475449, 31.776602498107401 ], [ 35.132923949864747, 31.775900008922594 ], [ 35.130185484075639, 31.77493311221648 ], [ 35.129261947941103, 31.77364555314492 ], [ 35.127892069485448, 31.77393729513016 ], [ 35.12683073553611, 31.773878123796258 ], [ 35.125358003665106, 31.77431596430209 ], [ 35.125118082709626, 31.774520533168424 ], [ 35.124774695598241, 31.775719677497893 ], [ 35.124671248228196, 31.776567884412277 ], [ 35.125046047778042, 31.778644877365917 ], [ 35.1254905561117, 31.77946420510948 ], [ 35.12754465746, 31.780050484964345 ], [ 35.128468629480174, 31.780723812051477 ], [ 35.129906749636845, 31.780900159357824 ], [ 35.130259275242786, 31.781421087634946 ], [ 35.130484362440022, 31.781822447179664 ], [ 35.130954710667005, 31.782755492534463 ], [ 35.132152901357962, 31.783999995550534 ], [ 35.133586870605534, 31.784988586070295 ], [ 35.134807462671418, 31.785025783349187 ], [ 35.136862257263864, 31.786215875002299 ], [ 35.137932365278893, 31.787204132671103 ], [ 35.13865976689808, 31.788045926429906 ], [ 35.138145627459338, 31.788411446064426 ], [ 35.136904419509115, 31.787185284725986 ], [ 35.136305281205686, 31.786544749904312 ], [ 35.135770220770773, 31.786215291252173 ], [ 35.13553481603698, 31.786013963761114 ], [ 35.13461409513161, 31.785793954832979 ], [ 35.133414884245688, 31.785811599467266 ], [ 35.132578305058502, 31.787658458592759 ], [ 35.132278509988758, 31.787713211199598 ], [ 35.132387570771165, 31.785134192057281 ], [ 35.130097627950455, 31.783413519037218 ], [ 35.129346394381656, 31.785553144513315 ], [ 35.129023197805992, 31.78804058773872 ], [ 35.128743550905895, 31.789540270729795 ], [ 35.128806840745618, 31.790784124694675 ], [ 35.12979051656486, 31.792595506936145 ], [ 35.131224348240423, 31.793894986489825 ], [ 35.133408721125129, 31.793878005786986 ], [ 35.135078814076799, 31.794354465294443 ], [ 35.135849950707261, 31.794208514335843 ], [ 35.135957074136648, 31.794135432850112 ], [ 35.136021596722479, 31.793696452501333 ], [ 35.136021839011917, 31.793367281537975 ], [ 35.135851151938205, 31.792580606071049 ], [ 35.135251849986375, 31.792123049819971 ], [ 35.134117419799608, 31.791262705826924 ], [ 35.133368739936451, 31.790237981736372 ], [ 35.133112373348595, 31.789414729935434 ], [ 35.133219955804606, 31.788738049958216 ], [ 35.134077010224289, 31.788153232357619 ], [ 35.13589805357983, 31.787111608248981 ], [ 35.136989238102082, 31.788301085403372 ], [ 35.138787010102376, 31.789820180475285 ], [ 35.139879613774774, 31.789217137692123 ], [ 35.137975649537609, 31.786472492802986 ], [ 35.138661022151808, 31.786271647970572 ], [ 35.138190239938062, 31.785814171387052 ], [ 35.137848020244697, 31.785265223535923 ], [ 35.137548749218787, 31.784606543356752 ], [ 35.137399550403757, 31.78360046248487 ], [ 35.13757149734856, 31.782777443364598 ], [ 35.13802175611854, 31.781936352067458 ], [ 35.138557331187059, 31.781515921536545 ], [ 35.140013662477926, 31.781205711442503 ], [ 35.140548990646948, 31.781279120166772 ], [ 35.140848534976229, 31.781553609807503 ], [ 35.141040869463865, 31.782212229412789 ], [ 35.141490165579036, 31.782742914527201 ], [ 35.142182819219954, 31.782968534415772 ], [ 35.142706497854746, 31.783113895213393 ], [ 35.143753965628811, 31.783404610394925 ], [ 35.14654849050396, 31.784157954708824 ], [ 35.14659953282473, 31.784251769243127 ], [ 35.146711893983252, 31.784893389133995 ], [ 35.147277454300657, 31.785981984353679 ], [ 35.148154735522859, 31.786853101015783 ], [ 35.148947247435487, 31.787373449243248 ], [ 35.151792996224927, 31.787265804365276 ], [ 35.151877564048732, 31.787834178569767 ], [ 35.152386558961375, 31.789200854574336 ], [ 35.152510773891734, 31.789307141914961 ], [ 35.152822547425373, 31.789535524082979 ], [ 35.153644687457792, 31.790028709523554 ], [ 35.155510431656623, 31.790574691347896 ], [ 35.158910491900777, 31.791341341960713 ], [ 35.160477813272671, 31.791623716806139 ], [ 35.161077098054051, 31.791698594332956 ], [ 35.161850408716248, 31.791740790537595 ], [ 35.163105205063474, 31.791780523728718 ], [ 35.163210384742115, 31.792226517180136 ], [ 35.162686019051691, 31.79271992297998 ], [ 35.16252904386544, 31.792873003716949 ], [ 35.162376928016911, 31.793253529618109 ], [ 35.162345860191323, 31.794706832480166 ], [ 35.163196466332998, 31.795278064520108 ], [ 35.164057275800388, 31.795477375865897 ], [ 35.165950915394006, 31.796645752230212 ], [ 35.167368486676253, 31.797779422301542 ], [ 35.167763389347201, 31.79810825653627 ], [ 35.168484854648199, 31.799110133617599 ], [ 35.168654319366446, 31.799432137465246 ], [ 35.169140095097468, 31.800470378511758 ], [ 35.16906894569707, 31.801240257714468 ], [ 35.167943743240102, 31.803229574669295 ], [ 35.168369158293274, 31.80336812779165 ], [ 35.170486302984528, 31.80325625007173 ], [ 35.170790215022279, 31.803282303560682 ], [ 35.170972430548268, 31.803429351023379 ], [ 35.17117497208492, 31.803732241029838 ], [ 35.171741735395024, 31.804943464955425 ], [ 35.171761947443215, 31.805125100151084 ], [ 35.17172138551399, 31.805453899582066 ], [ 35.171658708289506, 31.805607015428919 ], [ 35.171504939855147, 31.805929382565957 ], [ 35.171159258626815, 31.806328265513422 ], [ 35.170525420656574, 31.807186015982673 ], [ 35.169533059476827, 31.808541028471339 ], [ 35.169567170738524, 31.808541037807039 ], [ 35.174057117294311, 31.808101459225522 ], [ 35.174076760838169, 31.808099570047343 ], [ 35.174230317141735, 31.808088694294703 ], [ 35.175747093713582, 31.807936002900373 ], [ 35.176706982891289, 31.807843326062898 ], [ 35.177577288822299, 31.807843512343073 ], [ 35.178698293737149, 31.807885859294984 ], [ 35.179138769213573, 31.807925808615476 ], [ 35.180597792562587, 31.808090043592827 ], [ 35.181858366394565, 31.80833070263462 ], [ 35.182579935698776, 31.808526707247207 ] ], [ [ 35.169708281826694, 31.808489401086455 ], [ 35.16959189762742, 31.80850181467201 ], [ 35.169672833402494, 31.808393886915617 ], [ 35.169966750752614, 31.808362131896686 ], [ 35.170503060416394, 31.808265869443009 ], [ 35.170834895957803, 31.80821788944511 ], [ 35.171159545638368, 31.80818172076766 ], [ 35.171681790283017, 31.808133697939187 ], [ 35.172218287160675, 31.808097761182999 ], [ 35.172712335795261, 31.808043594506543 ], [ 35.173135728674623, 31.808001583381323 ], [ 35.173499447565618, 31.807976601096691 ], [ 35.174162774839267, 31.807946638979697 ], [ 35.174783856994068, 31.807922705894732 ], [ 35.175426280793907, 31.807868743470607 ], [ 35.176015578170464, 31.807832622342634 ], [ 35.176481413470022, 31.807820730890327 ], [ 35.176543721487363, 31.80782074453488 ], [ 35.169708281826694, 31.808489401086455 ] ], [ [ 35.164621232995643, 31.791317010014428 ], [ 35.164367932462888, 31.79105990650023 ], [ 35.164351031078645, 31.791076945947108 ], [ 35.163640705095055, 31.79019859977744 ], [ 35.163287596753804, 31.789780483775512 ], [ 35.16169209824443, 31.789056503249235 ], [ 35.159347575597643, 31.788615327350012 ], [ 35.157162804224058, 31.788006425458427 ], [ 35.156180966396853, 31.787618086164628 ], [ 35.155726871150485, 31.787376761536301 ], [ 35.152572818789956, 31.785970450940724 ], [ 35.150768789946532, 31.78515191573776 ], [ 35.150929532427021, 31.783233138241187 ], [ 35.149295336656017, 31.782777192824266 ], [ 35.149144708699836, 31.782722836790292 ], [ 35.149024061360628, 31.78267480649674 ], [ 35.148913672561193, 31.78259774130122 ], [ 35.148721756521709, 31.780264866925414 ], [ 35.147077332911607, 31.779718974896102 ], [ 35.144782315306919, 31.77910972011145 ], [ 35.142388885687787, 31.778888438149188 ], [ 35.142119734227379, 31.77769291683013 ], [ 35.142047387870925, 31.7756902532049 ], [ 35.142244281282423, 31.774893482495443 ], [ 35.142294397758995, 31.774620790120728 ], [ 35.14248086870478, 31.773615688446196 ], [ 35.143053924412861, 31.773245579369938 ], [ 35.146072589637868, 31.774146403716809 ], [ 35.150355458364359, 31.774952284199873 ], [ 35.151568427094958, 31.775180507931307 ], [ 35.153700739895079, 31.775538323145803 ], [ 35.153840282603646, 31.775576887225093 ], [ 35.154943475699298, 31.775803502059826 ], [ 35.157606268115401, 31.776452661231243 ], [ 35.16313333285342, 31.777658168593248 ], [ 35.164019929201373, 31.777905106212518 ], [ 35.165673113088431, 31.778365468191275 ], [ 35.166066955504284, 31.77849076282607 ], [ 35.167289426524924, 31.778929960575404 ], [ 35.16894645422277, 31.777429678853856 ], [ 35.169097971569016, 31.777373987145666 ], [ 35.169329291158512, 31.77734510192985 ], [ 35.169477094483128, 31.777339010009481 ], [ 35.169542549926867, 31.77733713406791 ], [ 35.169680855167407, 31.777321840532604 ], [ 35.169828666212325, 31.777294825492028 ], [ 35.16990785131064, 31.777278613813333 ], [ 35.16999970833259, 31.777253477280127 ], [ 35.170089031409887, 31.77722879091877 ], [ 35.170523935519604, 31.777373382245585 ], [ 35.171710277589483, 31.777596176354326 ], [ 35.17362013878089, 31.778066421066264 ], [ 35.175761337524662, 31.778857925069111 ], [ 35.17902441383989, 31.779250286219185 ], [ 35.179081629946012, 31.779269326443742 ], [ 35.179315987249652, 31.779335207179798 ], [ 35.17954106163544, 31.779373759894799 ], [ 35.179621189006816, 31.779387483483262 ], [ 35.179838559945324, 31.779413769138184 ], [ 35.180115257590437, 31.779464235077889 ], [ 35.180240772169789, 31.77951656570734 ], [ 35.180319932125592, 31.779597746368292 ], [ 35.180361082486584, 31.779689741903983 ], [ 35.180482389148679, 31.780095593094249 ], [ 35.180521416315663, 31.780234574076182 ], [ 35.180540391431023, 31.780345504042938 ], [ 35.180530770393602, 31.780398710844594 ], [ 35.180483241405952, 31.780476260234977 ], [ 35.180440045618653, 31.780535683423199 ], [ 35.180279590744611, 31.780457283191769 ], [ 35.18015502787604, 31.780394130700195 ], [ 35.180036799001485, 31.780333684819677 ], [ 35.179770669070727, 31.780235242830688 ], [ 35.179398124103251, 31.780120636498282 ], [ 35.179250328534195, 31.78008408286097 ], [ 35.178946292322145, 31.780008808966642 ], [ 35.178847057613908, 31.779987054741316 ], [ 35.178605409064104, 31.779940110329523 ], [ 35.178422775933058, 31.779897776892529 ], [ 35.178247428710307, 31.779851656957739 ], [ 35.178007791578992, 31.779787667032728 ], [ 35.177652136611577, 31.779693711238593 ], [ 35.177566521147291, 31.779673852738675 ], [ 35.177508457609399, 31.779664822089057 ], [ 35.177392328183565, 31.779654967461422 ], [ 35.177212857897338, 31.779631481431707 ], [ 35.177097893892437, 31.779607918803578 ], [ 35.17696783433238, 31.779579031961479 ], [ 35.176783096255328, 31.779519560742035 ], [ 35.176609972156477, 31.779458288106071 ], [ 35.176327056283625, 31.779378864089843 ], [ 35.176021861423912, 31.779310166390587 ], [ 35.175798055354981, 31.779272239029801 ], [ 35.175629143059183, 31.779250647002868 ], [ 35.175298914208433, 31.779226132118247 ], [ 35.175146783059795, 31.779221588075934 ], [ 35.17480789014575, 31.779219706134725 ], [ 35.174420320780555, 31.779238644371819 ], [ 35.174224053476436, 31.779252937308755 ], [ 35.173930652955121, 31.779281726389296 ], [ 35.173654985738771, 31.779319627666887 ], [ 35.173223262993091, 31.779406009294174 ], [ 35.173003435832584, 31.779468272515043 ], [ 35.172785078817107, 31.779552901373112 ], [ 35.172654984033052, 31.779631329176155 ], [ 35.172499962225224, 31.779742216875299 ], [ 35.172437549795326, 31.779793606158435 ], [ 35.17241209909713, 31.779814342109212 ], [ 35.172260129953855, 31.779949579980165 ], [ 35.172121675568853, 31.780080311887691 ], [ 35.171973809168612, 31.780255231442339 ], [ 35.171861951089028, 31.780408515844844 ], [ 35.171759485404678, 31.780571722799365 ], [ 35.171570499738628, 31.780884612948558 ], [ 35.17137813338897, 31.781200207446922 ], [ 35.171195477840165, 31.781518509691416 ], [ 35.171125651157197, 31.78163122153989 ], [ 35.170934481411855, 31.781840398464755 ], [ 35.170674542877492, 31.782151464880791 ], [ 35.170365166355182, 31.782532861103356 ], [ 35.170182423370228, 31.782785327456363 ], [ 35.17007266872627, 31.782944382566761 ], [ 35.16990034139269, 31.783291273982591 ], [ 35.169864504905874, 31.7834130127099 ], [ 35.169824108660698, 31.78358786857773 ], [ 35.169815678978402, 31.783826853949222 ], [ 35.169856740669765, 31.784134482777553 ], [ 35.169924134656831, 31.784327404642404 ], [ 35.169984374473344, 31.784452776708701 ], [ 35.170082414524515, 31.784571936235878 ], [ 35.17018384240022, 31.784666656728994 ], [ 35.170241877558453, 31.784759471648151 ], [ 35.170231283992933, 31.784856055878809 ], [ 35.170195475676934, 31.784900777536318 ], [ 35.17018375080292, 31.784915474380547 ], [ 35.170095054643419, 31.78493799652788 ], [ 35.169998969453189, 31.784956007417961 ], [ 35.169915556267085, 31.784967708786056 ], [ 35.169811122741649, 31.78500555775506 ], [ 35.169679131504445, 31.785046104650228 ], [ 35.169465742626699, 31.785072289856036 ], [ 35.169304287613933, 31.785129873055272 ], [ 35.169010472328445, 31.785363368331183 ], [ 35.168599711154961, 31.785767277856426 ], [ 35.168408416771356, 31.785988986386336 ], [ 35.168153947320803, 31.786302934877966 ], [ 35.168060985182684, 31.786429977626192 ], [ 35.16800287275516, 31.786537370158186 ], [ 35.167953209392749, 31.786638181648936 ], [ 35.167900363774315, 31.786776328373954 ], [ 35.167877095529398, 31.786878139415197 ], [ 35.167858051231256, 31.786978238166782 ], [ 35.167860124634103, 31.787075547270092 ], [ 35.167868531906144, 31.787175744075615 ], [ 35.167880008983403, 31.787255920917552 ], [ 35.167886963564001, 31.787291365211829 ], [ 35.167822585433896, 31.787489030003098 ], [ 35.16777495545481, 31.787786713588648 ], [ 35.167822233953622, 31.788382031490446 ], [ 35.167948166067632, 31.790343838868921 ], [ 35.167171904406416, 31.790573673550025 ], [ 35.166934038664742, 31.791304183731121 ], [ 35.164621232995643, 31.791317010014428 ] ], [ [ 35.150245486686437, 31.736454317230507 ], [ 35.150206241980676, 31.736435632324522 ], [ 35.150268065207776, 31.736461180855517 ], [ 35.150245486686437, 31.736454317230507 ] ], [ [ 35.148179366648847, 31.735632291245565 ], [ 35.148080431085454, 31.735555049480478 ], [ 35.149865687554403, 31.736294528440865 ], [ 35.150014864648675, 31.736356278490568 ], [ 35.149683036187525, 31.736271723636474 ], [ 35.149388467277134, 31.736172844636513 ], [ 35.149195924898358, 31.736102778090366 ], [ 35.148906109062359, 31.735998218396578 ], [ 35.148658806344926, 31.735917305026209 ], [ 35.148461210245969, 31.735829919698123 ], [ 35.148320808100927, 31.73574409237435 ], [ 35.148179366648847, 31.735632291245565 ] ], [ [ 35.143927027005837, 31.731579247546897 ], [ 35.143921229662048, 31.731569595029143 ], [ 35.144911783785879, 31.732504555347845 ], [ 35.147748808734036, 31.73531275664374 ], [ 35.147735201899948, 31.735303191018733 ], [ 35.147596820540315, 31.735193825583696 ], [ 35.147367012909932, 31.734981788940576 ], [ 35.1472495275273, 31.734870268037245 ], [ 35.147032036810181, 31.73470846918158 ], [ 35.146909363698825, 31.7346258047315 ], [ 35.146727098036003, 31.73449784049518 ], [ 35.146549803565797, 31.734352021679676 ], [ 35.146403845596268, 31.734213341466127 ], [ 35.146302186519108, 31.734108680914463 ], [ 35.146149377644889, 31.733958273269771 ], [ 35.146044451769306, 31.733847478455466 ], [ 35.145840835839742, 31.733611191317905 ], [ 35.145697633275994, 31.73345727032908 ], [ 35.145502651467652, 31.733253272744363 ], [ 35.145301637109199, 31.733078672279795 ], [ 35.145106516583837, 31.732929416143694 ], [ 35.144956536882511, 31.732816254653002 ], [ 35.144847490128313, 31.732718353330505 ], [ 35.144653230069274, 31.732546009603698 ], [ 35.144488081206362, 31.732394421749309 ], [ 35.144399415286934, 31.732274344168708 ], [ 35.144292742902017, 31.732096359434284 ], [ 35.144153686901056, 31.731901675129951 ], [ 35.144021058106176, 31.731722595673162 ], [ 35.143927027005837, 31.731579247546897 ] ], [ [ 35.223191739424273, 31.746280395033278 ], [ 35.223188676302726, 31.746267769646945 ], [ 35.223197756468565, 31.746287518725389 ], [ 35.223191739424273, 31.746280395033278 ] ] ] ] } }
]
}
